TEVEL2-2                
1 63219U 25052K   26068.64848259  .00020339  00000+0  69428-3 0  9991
2 63219  97.3987 324.7700 0004693 105.7930 254.3828 15.30343745 54855
STARLINK-35973          
1 66632U 25271R   26068.47336867  .00024246  00000+0  82798-3 0  9990
2 66632  53.1577 140.9367 0000932  72.1712 287.9391 15.30203912 17493
